{"type": "FeatureCollection", "features": [ {"type": "Feature", "properties": {"norad_id": 37530, "name": "COSMOS 2251 DEB", "group": "cosmos-2251-debris", "lat": 16.826074828560387, "lon": -9.47644460866426, "alt_km": 761.5608948160152, "timestamp": "2025-12-06T05:40:09.643331+00:00", "meta": {"OBJECT_NAME": "COSMOS 2251 DEB", "OBJECT_ID": "1993-036BNK", "EPOCH": "2025-11-30T19:50:14.646624", "MEAN_MOTION": 14.34478642, "ECCENTRICITY": 0.00255427, "INCLINATION": 74.0356, "RA_OF_ASC_NODE": 355.4602, "ARG_OF_PERICENTER": 61.4891, "MEAN_ANOMALY": 111.2815, "EPHEMERIS_TYPE": 0, "CLASSIFICATION_TYPE": "U", "NORAD_CAT_ID": 37530, "ELEMENT_SET_NO": 999, "REV_AT_EPOCH": 85061, "BSTAR": 0.00021143929, "MEAN_MOTION_DOT": 5.72e-06, "MEAN_MOTION_DDOT": 0}, "tle": {"line1": "1 37530U 93036BNK 25334.82655841  .00000572  00000+0  21144-3 0  9993", "line2": "2 37530  74.0356 355.4602 0025542  61.4891 111.2815 14.34478642850619"}}, "geometry": {"type": "Point", "coordinates": [-9.47644460866426, 16.826074828560387]}}, {"type": "Feature", "properties": {"norad_id": 37532, "name": "COSMOS 2251 DEB", "group": "cosmos-2251-debris", "lat": -25.801516308584503, "lon": -140.1737025325315, "alt_km": 744.7044351664017, "timestamp": "2025-12-06T05:40:09.643341+00:00", "meta": {"OBJECT_NAME": "COSMOS 2251 DEB", "OBJECT_ID": "1993-036BNM", "EPOCH": "2025-12-04T11:18:53.699040", "MEAN_MOTION": 14.4238829, "ECCENTRICITY": 0.0015732, "INCLINATION": 74.0505, "RA_OF_ASC_NODE": 231.0425, "ARG_OF_PERICENTER": 332.875, "MEAN_ANOMALY": 200.2675, "EPHEMERIS_TYPE": 0, "CLASSIFICATION_TYPE": "U", "NORAD_CAT_ID": 37532, "ELEMENT_SET_NO": 999, "REV_AT_EPOCH": 84796, "BSTAR": 0.00044921, "MEAN_MOTION_DOT": 1.461e-05, "MEAN_MOTION_DDOT": 0}, "tle": {"line1": "1 37532U 93036BNM 25338.47145485  .00001461  00000+0  44921-3 0  9994", "line2": "2 37532  74.0505 231.0425 0015732 332.8750 200.2675 14.42388290847963"}}, "geometry": {"type": "Point", "coordinates": [-140.1737025325315, -25.801516308584503]}}, {"type": "Feature", "properties": {"norad_id": 37533, "name": "COSMOS 2251 DEB", "group": "cosmos-2251-debris", "lat": 50.6976891083869, "lon": -136.30898391798272, "alt_km": 948.1188571943349, "timestamp": "2025-12-06T05:40:09.643351+00:00", "meta": {"OBJECT_NAME": "COSMOS 2251 DEB", "OBJECT_ID": "1993-036BNN", "EPOCH": "2025-12-04T07:30:18.688320", "MEAN_MOTION": 14.12102673, "ECCENTRICITY": 0.015842, "INCLINATION": 74.0693, "RA_OF_ASC_NODE": 206.6584, "ARG_OF_PERICENTER": 265.189, "MEAN_ANOMALY": 93.1146, "EPHEMERIS_TYPE": 0, "CLASSIFICATION_TYPE": "U", "NORAD_CAT_ID": 37533, "ELEMENT_SET_NO": 999, "REV_AT_EPOCH": 62802, "BSTAR": 0.0025745, "MEAN_MOTION_DOT": 5.293e-05, "MEAN_MOTION_DDOT": 0}, "tle": {"line1": "1 37533U 93036BNN 25338.31271630  .00005293  00000+0  25745-2 0  9999", "line2": "2 37533  74.0693 206.6584 0158420 265.1890  93.1146 14.12102673628023"}}, "geometry": {"type": "Point", "coordinates": [-136.30898391798272, 50.6976891083869]}}, {"type": "Feature", "properties": {"norad_id": 37535, "name": "COSMOS 2251 DEB", "group": "cosmos-2251-debris", "lat": -26.454027578110193, "lon": 77.69430176909253, "alt_km": 709.5217165755548, "timestamp": "2025-12-06T05:40:09.643362+00:00", "meta": {"OBJECT_NAME": "COSMOS 2251 DEB", "OBJECT_ID": "1993-036BNQ", "EPOCH": "2025-12-05T00:41:11.180832", "MEAN_MOTION": 14.5836277, "ECCENTRICITY": 0.00281769, "INCLINATION": 74.0241, "RA_OF_ASC_NODE": 88.1886, "ARG_OF_PERICENTER": 228.116, "MEAN_ANOMALY": 246.4914, "EPHEMERIS_TYPE": 0, "CLASSIFICATION_TYPE": "U", "NORAD_CAT_ID": 37535, "ELEMENT_SET_NO": 999, "REV_AT_EPOCH": 85212, "BSTAR": 0.0019157472, "MEAN_MOTION_DOT": 8.902e-05, "MEAN_MOTION_DDOT": 0}, "tle": {"line1": "1 37535U 93036BNQ 25339.02860163  .00008902  00000+0  19157-2 0  9995", "line2": "2 37535  74.0241  88.1886 0028176 228.1160 246.4914 14.58362770852127"}}, "geometry": {"type": "Point", "coordinates": [77.69430176909253, -26.454027578110193]}}, {"type": "Feature", "properties": {"norad_id": 37537, "name": "COSMOS 2251 DEB", "group": "cosmos-2251-debris", "lat": -62.86040917525038, "lon": -116.89522453927653, "alt_km": 795.0205508181916, "timestamp": "2025-12-06T05:40:09.643372+00:00", "meta": {"OBJECT_NAME": "COSMOS 2251 DEB", "OBJECT_ID": "1993-036BNS", "EPOCH": "2025-12-04T13:53:52.711584", "MEAN_MOTION": 14.3747249, "ECCENTRICITY": 0.0050092, "INCLINATION": 74.012, "RA_OF_ASC_NODE": 280.1661, "ARG_OF_PERICENTER": 62.5345, "MEAN_ANOMALY": 298.0888, "EPHEMERIS_TYPE": 0, "CLASSIFICATION_TYPE": "U", "NORAD_CAT_ID": 37537, "ELEMENT_SET_NO": 999, "REV_AT_EPOCH": 84916, "BSTAR": 0.00043114, "MEAN_MOTION_DOT": 1.283e-05, "MEAN_MOTION_DDOT": 0}, "tle": {"line1": "1 37537U 93036BNS 25338.57908231  .00001283  00000+0  43114-3 0  9991", "line2": "2 37537  74.0120 280.1661 0050092  62.5345 298.0888 14.37472490849168"}}, "geometry": {"type": "Point", "coordinates": [-116.89522453927653, -62.86040917525038]}}, {"type": "Feature", "properties": {"norad_id": 37546, "name": "COSMOS 2251 DEB", "group": "cosmos-2251-debris", "lat": 74.00373978498773, "lon": -160.9019919929624, "alt_km": 618.2177975635323, "timestamp": "2025-12-06T05:40:09.643382+00:00", "meta": {"OBJECT_NAME": "COSMOS 2251 DEB", "OBJECT_ID": "1993-036BPB", "EPOCH": "2025-12-04T02:58:34.086432", "MEAN_MOTION": 14.79925039, "ECCENTRICITY": 0.00067024, "INCLINATION": 74.0209, "RA_OF_ASC_NODE": 114.9948, "ARG_OF_PERICENTER": 140.2441, "MEAN_ANOMALY": 219.9228, "EPHEMERIS_TYPE": 0, "CLASSIFICATION_TYPE": "U", "NORAD_CAT_ID": 37546, "ELEMENT_SET_NO": 999, "REV_AT_EPOCH": 65760, "BSTAR": 0.0065338648, "MEAN_MOTION_DOT": 0.000497, "MEAN_MOTION_DDOT": 0}, "tle": {"line1": "1 37546U 93036BPB 25338.12400563  .00049700  00000+0  65339-2 0  9995", "line2": "2 37546  74.0209 114.9948 0006702 140.2441 219.9228 14.79925039657602"}}, "geometry": {"type": "Point", "coordinates": [-160.9019919929624, 74.00373978498773]}}, {"type": "Feature", "properties": {"norad_id": 37959, "name": "COSMOS 2251 DEB", "group": "cosmos-2251-debris", "lat": 72.2279909628284, "lon": 132.78750887534594, "alt_km": 719.1751958236746, "timestamp": "2025-12-06T05:40:09.643393+00:00", "meta": {"OBJECT_NAME": "COSMOS 2251 DEB", "OBJECT_ID": "1993-036BPJ", "EPOCH": "2025-12-03T06:37:43.731840", "MEAN_MOTION": 14.58029421, "ECCENTRICITY": 0.0058457, "INCLINATION": 74.0113, "RA_OF_ASC_NODE": 74.9761, "ARG_OF_PERICENTER": 219.613, "MEAN_ANOMALY": 172.3716, "EPHEMERIS_TYPE": 0, "CLASSIFICATION_TYPE": "U", "NORAD_CAT_ID": 37959, "ELEMENT_SET_NO": 999, "REV_AT_EPOCH": 79989, "BSTAR": 0.0012228, "MEAN_MOTION_DOT": 5.729e-05, "MEAN_MOTION_DDOT": 0}, "tle": {"line1": "1 37959U 93036BPJ 25337.27620060  .00005729  00000+0  12228-2 0  9996", "line2": "2 37959  74.0113  74.9761 0058457 219.6130 172.3716 14.58029421799891"}}, "geometry": {"type": "Point", "coordinates": [132.78750887534594, 72.2279909628284]}}, {"type": "Feature", "properties": {"norad_id": 37960, "name": "COSMOS 2251 DEB", "group": "cosmos-2251-debris", "lat": 36.10884273619931, "lon": -149.67518116101718, "alt_km": 1044.5871654237817, "timestamp": "2025-12-06T05:40:09.643415+00:00", "meta": {"OBJECT_NAME": "COSMOS 2251 DEB", "OBJECT_ID": "1993-036BPK", "EPOCH": "2025-12-03T21:12:07.257312", "MEAN_MOTION": 14.07814282, "ECCENTRICITY": 0.0249391, "INCLINATION": 74.0597, "RA_OF_ASC_NODE": 202.4135, "ARG_OF_PERICENTER": 223.2631, "MEAN_ANOMALY": 134.8686, "EPHEMERIS_TYPE": 0, "CLASSIFICATION_TYPE": "U", "NORAD_CAT_ID": 37960, "ELEMENT_SET_NO": 999, "REV_AT_EPOCH": 77281, "BSTAR": 0.0016575, "MEAN_MOTION_DOT": 3.709e-05, "MEAN_MOTION_DDOT": 0}, "tle": {"line1": "1 37960U 93036BPK 25337.88341733  .00003709  00000+0  16575-2 0  9997", "line2": "2 37960  74.0597 202.4135 0249391 223.2631 134.8686 14.07814282772811"}}, "geometry": {"type": "Point", "coordinates": [-149.67518116101718, 36.10884273619931]}}, {"type": "Feature", "properties": {"norad_id": 37961, "name": "COSMOS 2251 DEB", "group": "cosmos-2251-debris", "lat": 27.804818986006808, "lon": -39.205583591809926, "alt_km": 693.3482316911795, "timestamp": "2025-12-06T05:40:09.643426+00:00", "meta": {"OBJECT_NAME": "COSMOS 2251 DEB", "OBJECT_ID": "1993-036BPL", "EPOCH": "2025-12-01T04:44:47.787648", "MEAN_MOTION": 14.57792656, "ECCENTRICITY": 0.0041244, "INCLINATION": 74.04, "RA_OF_ASC_NODE": 159.049, "ARG_OF_PERICENTER": 241.5465, "MEAN_ANOMALY": 118.1542, "EPHEMERIS_TYPE": 0, "CLASSIFICATION_TYPE": "U", "NORAD_CAT_ID": 37961, "ELEMENT_SET_NO": 999, "REV_AT_EPOCH": 79897, "BSTAR": 0.001072, "MEAN_MOTION_DOT": 4.934e-05, "MEAN_MOTION_DDOT": 0}, "tle": {"line1": "1 37961U 93036BPL 25335.19777532  .00004934  00000+0  10720-2 0  9997", "line2": "2 37961  74.0400 159.0490 0041244 241.5465 118.1542 14.57792656798977"}}, "geometry": {"type": "Point", "coordinates": [-39.205583591809926, 27.804818986006808]}}, {"type": "Feature", "properties": {"norad_id": 37966, "name": "COSMOS 2251 DEB", "group": "cosmos-2251-debris", "lat": 61.270450386087674, "lon": -84.31736177176825, "alt_km": 521.0628730529043, "timestamp": "2025-12-06T05:40:09.643437+00:00", "meta": {"OBJECT_NAME": "COSMOS 2251 DEB", "OBJECT_ID": "1993-036BPR", "EPOCH": "2025-12-04T00:57:24.425856", "MEAN_MOTION": 15.1122342, "ECCENTRICITY": 0.0008631, "INCLINATION": 73.977, "RA_OF_ASC_NODE": 248.6217, "ARG_OF_PERICENTER": 122.4784, "MEAN_ANOMALY": 237.7244, "EPHEMERIS_TYPE": 0, "CLASSIFICATION_TYPE": "U", "NORAD_CAT_ID": 37966, "ELEMENT_SET_NO": 999, "REV_AT_EPOCH": 85211, "BSTAR": 0.0061628837, "MEAN_MOTION_DOT": 0.00105178, "MEAN_MOTION_DDOT": 0}, "tle": {"line1": "1 37966U 93036BPR 25338.03986604  .00105178  00000+0  61629-2 0  9996", "line2": "2 37966  73.9770 248.6217 0008631 122.4784 237.7244 15.11223420852119"}}, "geometry": {"type": "Point", "coordinates": [-84.31736177176825, 61.270450386087674]}}]}